CCSDS_OMM_VERS = 2.0
CREATION_DATE  = 
ORIGINATOR     = 

OBJECT_NAME    = STARLINK-35618
OBJECT_ID      = 2025-259B
CENTER_NAME    = EARTH
REF_FRAME      = TEME
TIME_SYSTEM    = UTC
MEAN_ELEMENT_THEORY = SGP/SGP4

EPOCH          = 2025-12-02T20:00:03.000384
MEAN_MOTION    = 15.50825169
ECCENTRICITY   = .0001834
INCLINATION    = 42.9998
RA_OF_ASC_NODE = 105.2804
ARG_OF_PERICENTER = 278.1153
MEAN_ANOMALY   = 56.9667

EPHEMERIS_TYPE = 0
CLASSIFICATION_TYPE = U
NORAD_CAT_ID   = 66423
ELEMENT_SET_NO = 999
REV_AT_EPOCH   = 468
BSTAR          = -.10669E-1
MEAN_MOTION_DOT = -.586659E-2
MEAN_MOTION_DDOT = 0

CCSDS_OMM_VERS = 2.0
CREATION_DATE  = 
ORIGINATOR     = 

OBJECT_NAME    = STARLINK-35588
OBJECT_ID      = 2025-259C
CENTER_NAME    = EARTH
REF_FRAME      = TEME
TIME_SYSTEM    = UTC
MEAN_ELEMENT_THEORY = SGP/SGP4

EPOCH          = 2025-12-02T20:00:03.000384
MEAN_MOTION    = 15.50507252
ECCENTRICITY   = .0001162
INCLINATION    = 43.0000
RA_OF_ASC_NODE = 105.2761
ARG_OF_PERICENTER = 270.7209
MEAN_ANOMALY   = 66.3833

EPHEMERIS_TYPE = 0
CLASSIFICATION_TYPE = U
NORAD_CAT_ID   = 66424
ELEMENT_SET_NO = 999
REV_AT_EPOCH   = 468
BSTAR          = .19306E-2
MEAN_MOTION_DOT = .114291E-2
MEAN_MOTION_DDOT = 0

CCSDS_OMM_VERS = 2.0
CREATION_DATE  = 
ORIGINATOR     = 

OBJECT_NAME    = STARLINK-35555
OBJECT_ID      = 2025-259D
CENTER_NAME    = EARTH
REF_FRAME      = TEME
TIME_SYSTEM    = UTC
MEAN_ELEMENT_THEORY = SGP/SGP4

EPOCH          = 2025-12-02T20:00:03.000384
MEAN_MOTION    = 15.50639020
ECCENTRICITY   = .0001463
INCLINATION    = 43.0000
RA_OF_ASC_NODE = 105.2694
ARG_OF_PERICENTER = 276.9851
MEAN_ANOMALY   = 61.9791

EPHEMERIS_TYPE = 0
CLASSIFICATION_TYPE = U
NORAD_CAT_ID   = 66425
ELEMENT_SET_NO = 999
REV_AT_EPOCH   = 468
BSTAR          = -.18335E-2
MEAN_MOTION_DOT = -.10668E-2
MEAN_MOTION_DDOT = 0

CCSDS_OMM_VERS = 2.0
CREATION_DATE  = 
ORIGINATOR     = 

OBJECT_NAME    = STARLINK-35589
OBJECT_ID      = 2025-259E
CENTER_NAME    = EARTH
REF_FRAME      = TEME
TIME_SYSTEM    = UTC
MEAN_ELEMENT_THEORY = SGP/SGP4

EPOCH          = 2025-12-02T20:00:03.000384
MEAN_MOTION    = 15.50619745
ECCENTRICITY   = .0001446
INCLINATION    = 42.9996
RA_OF_ASC_NODE = 105.2667
ARG_OF_PERICENTER = 276.1761
MEAN_ANOMALY   = 64.6812

EPHEMERIS_TYPE = 0
CLASSIFICATION_TYPE = U
NORAD_CAT_ID   = 66426
ELEMENT_SET_NO = 999
REV_AT_EPOCH   = 468
BSTAR          = -.78439E-3
MEAN_MOTION_DOT = -.46154E-3
MEAN_MOTION_DDOT = 0

CCSDS_OMM_VERS = 2.0
CREATION_DATE  = 
ORIGINATOR     = 

OBJECT_NAME    = STARLINK-35611
OBJECT_ID      = 2025-259F
CENTER_NAME    = EARTH
REF_FRAME      = TEME
TIME_SYSTEM    = UTC
MEAN_ELEMENT_THEORY = SGP/SGP4

EPOCH          = 2025-12-02T20:00:03.000384
MEAN_MOTION    = 15.50666286
ECCENTRICITY   = .0001634
INCLINATION    = 42.9999
RA_OF_ASC_NODE = 105.2612
ARG_OF_PERICENTER = 272.7861
MEAN_ANOMALY   = 70.0007

EPHEMERIS_TYPE = 0
CLASSIFICATION_TYPE = U
NORAD_CAT_ID   = 66427
ELEMENT_SET_NO = 999
REV_AT_EPOCH   = 468
BSTAR          = -.25995E-2
MEAN_MOTION_DOT = -.150421E-2
MEAN_MOTION_DDOT = 0

CCSDS_OMM_VERS = 2.0
CREATION_DATE  = 
ORIGINATOR     = 

OBJECT_NAME    = STARLINK-35610
OBJECT_ID      = 2025-259G
CENTER_NAME    = EARTH
REF_FRAME      = TEME
TIME_SYSTEM    = UTC
MEAN_ELEMENT_THEORY = SGP/SGP4

EPOCH          = 2025-12-02T20:00:03.000384
MEAN_MOTION    = 15.50642016
ECCENTRICITY   = .0001528
INCLINATION    = 42.9998
RA_OF_ASC_NODE = 105.2565
ARG_OF_PERICENTER = 273.8032
MEAN_ANOMALY   = 70.8885

EPHEMERIS_TYPE = 0
CLASSIFICATION_TYPE = U
NORAD_CAT_ID   = 66428
ELEMENT_SET_NO = 999
REV_AT_EPOCH   = 468
BSTAR          = -.15884E-2
MEAN_MOTION_DOT = -.92642E-3
MEAN_MOTION_DDOT = 0

CCSDS_OMM_VERS = 2.0
CREATION_DATE  = 
ORIGINATOR     = 

OBJECT_NAME    = STARLINK-35533
OBJECT_ID      = 2025-259H
CENTER_NAME    = EARTH
REF_FRAME      = TEME
TIME_SYSTEM    = UTC
MEAN_ELEMENT_THEORY = SGP/SGP4

EPOCH          = 2025-12-02T20:00:03.000384
MEAN_MOTION    = 15.50611302
ECCENTRICITY   = .0001486
INCLINATION    = 42.9998
RA_OF_ASC_NODE = 105.2505
ARG_OF_PERICENTER = 272.0789
MEAN_ANOMALY   = 74.5322

EPHEMERIS_TYPE = 0
CLASSIFICATION_TYPE = U
NORAD_CAT_ID   = 66429
ELEMENT_SET_NO = 999
REV_AT_EPOCH   = 468
BSTAR          = -.5032E-3
MEAN_MOTION_DOT = -.29784E-3
MEAN_MOTION_DDOT = 0

CCSDS_OMM_VERS = 2.0
CREATION_DATE  = 
ORIGINATOR     = 

OBJECT_NAME    = STARLINK-35470
OBJECT_ID      = 2025-259J
CENTER_NAME    = EARTH
REF_FRAME      = TEME
TIME_SYSTEM    = UTC
MEAN_ELEMENT_THEORY = SGP/SGP4

EPOCH          = 2025-12-02T20:00:03.000384
MEAN_MOTION    = 15.50560375
ECCENTRICITY   = .0001459
INCLINATION    = 42.9999
RA_OF_ASC_NODE = 105.2460
ARG_OF_PERICENTER = 271.7547
MEAN_ANOMALY   = 76.7600

EPHEMERIS_TYPE = 0
CLASSIFICATION_TYPE = U
NORAD_CAT_ID   = 66430
ELEMENT_SET_NO = 999
REV_AT_EPOCH   = 468
BSTAR          = .16047E-2
MEAN_MOTION_DOT = .94882E-3
MEAN_MOTION_DDOT = 0

CCSDS_OMM_VERS = 2.0
CREATION_DATE  = 
ORIGINATOR     = 

OBJECT_NAME    = STARLINK-35439
OBJECT_ID      = 2025-259K
CENTER_NAME    = EARTH
REF_FRAME      = TEME
TIME_SYSTEM    = UTC
MEAN_ELEMENT_THEORY = SGP/SGP4

EPOCH          = 2025-12-02T20:00:03.000384
MEAN_MOTION    = 15.50569638
ECCENTRICITY   = .0001442
INCLINATION    = 42.9998
RA_OF_ASC_NODE = 105.2399
ARG_OF_PERICENTER = 267.4805
MEAN_ANOMALY   = 82.9564

EPHEMERIS_TYPE = 0
CLASSIFICATION_TYPE = U
NORAD_CAT_ID   = 66431
ELEMENT_SET_NO = 999
REV_AT_EPOCH   = 468
BSTAR          = .12295E-2
MEAN_MOTION_DOT = .72434E-3
MEAN_MOTION_DDOT = 0

CCSDS_OMM_VERS = 2.0
CREATION_DATE  = 
ORIGINATOR     = 

OBJECT_NAME    = STARLINK-35446
OBJECT_ID      = 2025-259L
CENTER_NAME    = EARTH
REF_FRAME      = TEME
TIME_SYSTEM    = UTC
MEAN_ELEMENT_THEORY = SGP/SGP4

EPOCH          = 2025-12-02T20:00:03.000384
MEAN_MOTION    = 15.50598654
ECCENTRICITY   = .0001528
INCLINATION    = 42.9999
RA_OF_ASC_NODE = 105.2349
ARG_OF_PERICENTER = 268.9992
MEAN_ANOMALY   = 83.3484

EPHEMERIS_TYPE = 0
CLASSIFICATION_TYPE = U
NORAD_CAT_ID   = 66432
ELEMENT_SET_NO = 999
REV_AT_EPOCH   = 468
BSTAR          = .21062E-4
MEAN_MOTION_DOT = .895E-5
MEAN_MOTION_DDOT = 0

CCSDS_OMM_VERS = 2.0
CREATION_DATE  = 
ORIGINATOR     = 

OBJECT_NAME    = STARLINK-35457
OBJECT_ID      = 2025-259M
CENTER_NAME    = EARTH
REF_FRAME      = TEME
TIME_SYSTEM    = UTC
MEAN_ELEMENT_THEORY = SGP/SGP4

EPOCH          = 2025-12-02T20:00:03.000384
MEAN_MOTION    = 15.50626500
ECCENTRICITY   = .0001425
INCLINATION    = 42.9999
RA_OF_ASC_NODE = 105.2318
ARG_OF_PERICENTER = 271.3259
MEAN_ANOMALY   = 82.9438

EPHEMERIS_TYPE = 0
CLASSIFICATION_TYPE = U
NORAD_CAT_ID   = 66433
ELEMENT_SET_NO = 999
REV_AT_EPOCH   = 468
BSTAR          = -.1001E-2
MEAN_MOTION_DOT = -.58728E-3
MEAN_MOTION_DDOT = 0

CCSDS_OMM_VERS = 2.0
CREATION_DATE  = 
ORIGINATOR     = 

OBJECT_NAME    = STARLINK-35389
OBJECT_ID      = 2025-259N
CENTER_NAME    = EARTH
REF_FRAME      = TEME
TIME_SYSTEM    = UTC
MEAN_ELEMENT_THEORY = SGP/SGP4

EPOCH          = 2025-12-02T20:00:03.000384
MEAN_MOTION    = 15.50599334
ECCENTRICITY   = .0001418
INCLINATION    = 43.0001
RA_OF_ASC_NODE = 105.2269
ARG_OF_PERICENTER = 268.8658
MEAN_ANOMALY   = 87.3916

EPHEMERIS_TYPE = 0
CLASSIFICATION_TYPE = U
NORAD_CAT_ID   = 66434
ELEMENT_SET_NO = 999
REV_AT_EPOCH   = 468
BSTAR          = -.11431E-2
MEAN_MOTION_DOT = -.66881E-3
MEAN_MOTION_DDOT = 0

