STARLINK-35618          
1 66423U 25259B   25336.83336806 -.00586659  00000+0 -10669-1 0  9993
2 66423  42.9998 105.2804 0001834 278.1153  56.9667 15.50825169  4686
STARLINK-35588          
1 66424U 25259C   25336.83336806  .00114291  00000+0  19306-2 0  9999
2 66424  43.0000 105.2761 0001162 270.7209  66.3833 15.50507252  4689
STARLINK-35555          
1 66425U 25259D   25336.83336806 -.00106680  00000+0 -18335-2 0  9996
2 66425  43.0000 105.2694 0001463 276.9851  61.9791 15.50639020  4683
STARLINK-35589          
1 66426U 25259E   25336.83336806 -.00046154  00000+0 -78439-3 0  9998
2 66426  42.9996 105.2667 0001446 276.1761  64.6812 15.50619745  4685
STARLINK-35611          
1 66427U 25259F   25336.83336806 -.00150421  00000+0 -25995-2 0  9990
2 66427  42.9999 105.2612 0001634 272.7861  70.0007 15.50666286  4680
STARLINK-35610          
1 66428U 25259G   25336.83336806 -.00092642  00000+0 -15884-2 0  9997
2 66428  42.9998 105.2565 0001528 273.8032  70.8885 15.50642016  4688
STARLINK-35533          
1 66429U 25259H   25336.83336806 -.00029784  00000+0 -50320-3 0  9990
2 66429  42.9998 105.2505 0001486 272.0789  74.5322 15.50611302  4687
STARLINK-35470          
1 66430U 25259J   25336.83336806  .00094882  00000+0  16047-2 0  9998
2 66430  42.9999 105.2460 0001459 271.7547  76.7600 15.50560375  4684
STARLINK-35439          
1 66431U 25259K   25336.83336806  .00072434  00000+0  12295-2 0  9999
2 66431  42.9998 105.2399 0001442 267.4805  82.9564 15.50569638  4685
STARLINK-35446          
1 66432U 25259L   25336.83336806  .00000895  00000+0  21062-4 0  9996
2 66432  42.9999 105.2349 0001528 268.9992  83.3484 15.50598654  4686
STARLINK-35457          
1 66433U 25259M   25336.83336806 -.00058728  00000+0 -10010-2 0  9996
2 66433  42.9999 105.2318 0001425 271.3259  82.9438 15.50626500  4689
STARLINK-35389          
1 66434U 25259N   25336.83336806 -.00066881  00000+0 -11431-2 0  9994
2 66434  43.0001 105.2269 0001418 268.8658  87.3916 15.50599334  4681
